{"type": "FeatureCollection", "features": [ {"type": "Feature", "properties": {"norad_id": 31566, "name": "FENGYUN 1C DEB", "group": "fengyun-1c-debris", "lat": 62.067063794384275, "lon": 35.09379065997472, "alt_km": 760.2983250390589, "timestamp": "2025-12-19T04:59:48.589292+00:00", "meta": {"OBJECT_NAME": "FENGYUN 1C DEB", "OBJECT_ID": "1999-025BZH", "EPOCH": "2025-12-18T09:16:05.050848", "MEAN_MOTION": 14.37459236, "ECCENTRICITY": 0.00230263, "INCLINATION": 98.9498, "RA_OF_ASC_NODE": 51.5294, "ARG_OF_PERICENTER": 337.4995, "MEAN_ANOMALY": 154.2292, "EPHEMERIS_TYPE": 0, "CLASSIFICATION_TYPE": "U", "NORAD_CAT_ID": 31566, "ELEMENT_SET_NO": 999, "REV_AT_EPOCH": 96472, "BSTAR": 0.0017367474, "MEAN_MOTION_DOT": 5.168e-05, "MEAN_MOTION_DDOT": 0}, "tle": {"line1": "1 31566U 99025BZH 25352.38616957  .00005168  00000+0  17367-2 0  9993", "line2": "2 31566  98.9498  51.5294 0023026 337.4995 154.2292 14.37459236964726"}}, "geometry": {"type": "Point", "coordinates": [35.09379065997472, 62.067063794384275]}}, {"type": "Feature", "properties": {"norad_id": 31567, "name": "FENGYUN 1C DEB", "group": "fengyun-1c-debris", "lat": 38.32130702852211, "lon": -147.92069150997276, "alt_km": 951.1581054662493, "timestamp": "2025-12-19T04:59:48.589303+00:00", "meta": {"OBJECT_NAME": "FENGYUN 1C DEB", "OBJECT_ID": "1999-025BZJ", "EPOCH": "2025-12-18T20:11:23.313984", "MEAN_MOTION": 13.92925358, "ECCENTRICITY": 0.01867538, "INCLINATION": 102.3182, "RA_OF_ASC_NODE": 221.5371, "ARG_OF_PERICENTER": 294.0925, "MEAN_ANOMALY": 64.0787, "EPHEMERIS_TYPE": 0, "CLASSIFICATION_TYPE": "U", "NORAD_CAT_ID": 31567, "ELEMENT_SET_NO": 999, "REV_AT_EPOCH": 67494, "BSTAR": 0.0022518257, "MEAN_MOTION_DOT": 3.303e-05, "MEAN_MOTION_DDOT": 0}, "tle": {"line1": "1 31567U 99025BZJ 25352.84124206  .00003303  00000+0  22518-2 0  9999", "line2": "2 31567 102.3182 221.5371 0186753 294.0925  64.0787 13.92925358674942"}}, "geometry": {"type": "Point", "coordinates": [-147.92069150997276, 38.32130702852211]}}, {"type": "Feature", "properties": {"norad_id": 31568, "name": "FENGYUN 1C DEB", "group": "fengyun-1c-debris", "lat": 76.47526999576505, "lon": 120.01857903941023, "alt_km": 785.950661695133, "timestamp": "2025-12-19T04:59:48.589312+00:00", "meta": {"OBJECT_NAME": "FENGYUN 1C DEB", "OBJECT_ID": "1999-025BZK", "EPOCH": "2025-12-18T21:42:07.591392", "MEAN_MOTION": 14.03395259, "ECCENTRICITY": 0.01231905, "INCLINATION": 102.0494, "RA_OF_ASC_NODE": 236.9961, "ARG_OF_PERICENTER": 104.2845, "MEAN_ANOMALY": 257.2026, "EPHEMERIS_TYPE": 0, "CLASSIFICATION_TYPE": "U", "NORAD_CAT_ID": 31568, "ELEMENT_SET_NO": 999, "REV_AT_EPOCH": 94666, "BSTAR": 0.0023789885, "MEAN_MOTION_DOT": 3.913e-05, "MEAN_MOTION_DDOT": 0}, "tle": {"line1": "1 31568U 99025BZK 25352.90425453  .00003913  00000+0  23790-2 0  9995", "line2": "2 31568 102.0494 236.9961 0123190 104.2845 257.2026 14.03395259946667"}}, "geometry": {"type": "Point", "coordinates": [120.01857903941023, 76.47526999576505]}}, {"type": "Feature", "properties": {"norad_id": 31569, "name": "FENGYUN 1C DEB", "group": "fengyun-1c-debris", "lat": 74.47628030309274, "lon": 26.512933172432103, "alt_km": 940.3286172402441, "timestamp": "2025-12-19T04:59:48.589323+00:00", "meta": {"OBJECT_NAME": "FENGYUN 1C DEB", "OBJECT_ID": "1999-025BZL", "EPOCH": "2025-12-18T09:44:30.132384", "MEAN_MOTION": 13.95566397, "ECCENTRICITY": 0.01741314, "INCLINATION": 102.6147, "RA_OF_ASC_NODE": 151.6935, "ARG_OF_PERICENTER": 352.4282, "MEAN_ANOMALY": 35.9007, "EPHEMERIS_TYPE": 0, "CLASSIFICATION_TYPE": "U", "NORAD_CAT_ID": 31569, "ELEMENT_SET_NO": 999, "REV_AT_EPOCH": 93758, "BSTAR": 0.0018707499, "MEAN_MOTION_DOT": 2.815e-05, "MEAN_MOTION_DDOT": 0}, "tle": {"line1": "1 31569U 99025BZL 25352.40590431  .00002815  00000+0  18707-2 0  9992", "line2": "2 31569 102.6147 151.6935 0174131 352.4282  35.9007 13.95566397937580"}}, "geometry": {"type": "Point", "coordinates": [26.512933172432103, 74.47628030309274]}}, {"type": "Feature", "properties": {"norad_id": 31570, "name": "FENGYUN 1C DEB", "group": "fengyun-1c-debris", "lat": -47.11841916127919, "lon": 48.80624219211865, "alt_km": 838.5338377334228, "timestamp": "2025-12-19T04:59:48.589333+00:00", "meta": {"OBJECT_NAME": "FENGYUN 1C DEB", "OBJECT_ID": "1999-025BZM", "EPOCH": "2025-12-15T20:21:47.018304", "MEAN_MOTION": 14.25278416, "ECCENTRICITY": 0.01547184, "INCLINATION": 102.5675, "RA_OF_ASC_NODE": 30.1124, "ARG_OF_PERICENTER": 216.2531, "MEAN_ANOMALY": 142.807, "EPHEMERIS_TYPE": 0, "CLASSIFICATION_TYPE": "U", "NORAD_CAT_ID": 31570, "ELEMENT_SET_NO": 999, "REV_AT_EPOCH": 63411, "BSTAR": 0.0020808441, "MEAN_MOTION_DOT": 5.475e-05, "MEAN_MOTION_DDOT": 0}, "tle": {"line1": "1 31570U 99025BZM 25349.84846086  .00005475  00000+0  20808-2 0  9998", "line2": "2 31570 102.5675  30.1124 0154718 216.2531 142.8070 14.25278416634118"}}, "geometry": {"type": "Point", "coordinates": [48.80624219211865, -47.11841916127919]}}, {"type": "Feature", "properties": {"norad_id": 31608, "name": "FENGYUN 1C DEB", "group": "fengyun-1c-debris", "lat": 11.743019287508176, "lon": 109.93803590691594, "alt_km": 510.55949495379355, "timestamp": "2025-12-19T04:59:48.589343+00:00", "meta": {"OBJECT_NAME": "FENGYUN 1C DEB", "OBJECT_ID": "1999-025BZN", "EPOCH": "2025-12-17T14:09:29.850912", "MEAN_MOTION": 14.85908283, "ECCENTRICITY": 0.01457059, "INCLINATION": 98.3797, "RA_OF_ASC_NODE": 109.9897, "ARG_OF_PERICENTER": 22.0076, "MEAN_ANOMALY": 338.7309, "EPHEMERIS_TYPE": 0, "CLASSIFICATION_TYPE": "U", "NORAD_CAT_ID": 31608, "ELEMENT_SET_NO": 999, "REV_AT_EPOCH": 98705, "BSTAR": 0.00045964647, "MEAN_MOTION_DOT": 4.79e-05, "MEAN_MOTION_DDOT": 0}, "tle": {"line1": "1 31608U 99025BZN 25351.58992883  .00004790  00000+0  45965-3 0  9992", "line2": "2 31608  98.3797 109.9897 0145705  22.0076 338.7309 14.85908283987055"}}, "geometry": {"type": "Point", "coordinates": [109.93803590691594, 11.743019287508176]}}, {"type": "Feature", "properties": {"norad_id": 31609, "name": "FENGYUN 1C DEB", "group": "fengyun-1c-debris", "lat": 15.529876300664554, "lon": 19.366925638199795, "alt_km": 820.437101700717, "timestamp": "2025-12-19T04:59:48.589353+00:00", "meta": {"OBJECT_NAME": "FENGYUN 1C DEB", "OBJECT_ID": "1999-025BZP", "EPOCH": "2025-12-15T00:59:33.000288", "MEAN_MOTION": 14.15782518, "ECCENTRICITY": 0.00948096, "INCLINATION": 99.2167, "RA_OF_ASC_NODE": 17.645, "ARG_OF_PERICENTER": 313.866, "MEAN_ANOMALY": 74.7981, "EPHEMERIS_TYPE": 0, "CLASSIFICATION_TYPE": "U", "NORAD_CAT_ID": 31609, "ELEMENT_SET_NO": 999, "REV_AT_EPOCH": 66117, "BSTAR": 0.0017564085, "MEAN_MOTION_DOT": 3.557e-05, "MEAN_MOTION_DDOT": 0}, "tle": {"line1": "1 31609U 99025BZP 25349.04135417  .00003557  00000+0  17564-2 0  9996", "line2": "2 31609  99.2167  17.6450 0094809 313.8660  74.7981 14.15782518661174"}}, "geometry": {"type": "Point", "coordinates": [19.366925638199795, 15.529876300664554]}}, {"type": "Feature", "properties": {"norad_id": 31612, "name": "FENGYUN 1C DEB", "group": "fengyun-1c-debris", "lat": 3.1573413827590167, "lon": 92.4531364057368, "alt_km": 354.0648660113393, "timestamp": "2025-12-19T04:59:48.589363+00:00", "meta": {"OBJECT_NAME": "FENGYUN 1C DEB", "OBJECT_ID": "1999-025BZS", "EPOCH": "2025-12-15T05:34:20.315712", "MEAN_MOTION": 15.71781669, "ECCENTRICITY": 0.00321406, "INCLINATION": 100.3339, "RA_OF_ASC_NODE": 265.9962, "ARG_OF_PERICENTER": 93.9662, "MEAN_ANOMALY": 266.5266, "EPHEMERIS_TYPE": 0, "CLASSIFICATION_TYPE": "U", "NORAD_CAT_ID": 31612, "ELEMENT_SET_NO": 999, "REV_AT_EPOCH": 44, "BSTAR": 0.0014945855, "MEAN_MOTION_DOT": 0.00203446, "MEAN_MOTION_DDOT": 0}, "tle": {"line1": "1 31612U 99025BZS 25349.23217958  .00203446  00000+0  14946-2 0  9992", "line2": "2 31612 100.3339 265.9962 0032140  93.9662 266.5266 15.71781669   440"}}, "geometry": {"type": "Point", "coordinates": [92.4531364057368, 3.1573413827590167]}}, {"type": "Feature", "properties": {"norad_id": 31613, "name": "FENGYUN 1C DEB", "group": "fengyun-1c-debris", "lat": -50.38860039455493, "lon": -10.912781377090747, "alt_km": 1226.9917259696094, "timestamp": "2025-12-19T04:59:48.589373+00:00", "meta": {"OBJECT_NAME": "FENGYUN 1C DEB", "OBJECT_ID": "1999-025BZT", "EPOCH": "2025-12-17T23:43:09.488928", "MEAN_MOTION": 13.63457021, "ECCENTRICITY": 0.03426681, "INCLINATION": 98.4238, "RA_OF_ASC_NODE": 178.3427, "ARG_OF_PERICENTER": 92.1319, "MEAN_ANOMALY": 271.91, "EPHEMERIS_TYPE": 0, "CLASSIFICATION_TYPE": "U", "NORAD_CAT_ID": 31613, "ELEMENT_SET_NO": 999, "REV_AT_EPOCH": 91833, "BSTAR": 0.0010710704, "MEAN_MOTION_DOT": 1.224e-05, "MEAN_MOTION_DDOT": 0}, "tle": {"line1": "1 31613U 99025BZT 25351.98830427  .00001224  00000+0  10711-2 0  9996", "line2": "2 31613  98.4238 178.3427 0342668  92.1319 271.9100 13.63457021918332"}}, "geometry": {"type": "Point", "coordinates": [-10.912781377090747, -50.38860039455493]}}, {"type": "Feature", "properties": {"norad_id": 31614, "name": "FENGYUN 1C DEB", "group": "fengyun-1c-debris", "lat": 17.78872050389327, "lon": 82.86122834220386, "alt_km": 585.5229915289983, "timestamp": "2025-12-19T04:59:48.589383+00:00", "meta": {"OBJECT_NAME": "FENGYUN 1C DEB", "OBJECT_ID": "1999-025BZU", "EPOCH": "2025-12-18T17:11:08.515392", "MEAN_MOTION": 14.98414042, "ECCENTRICITY": 0.00195834, "INCLINATION": 98.9754, "RA_OF_ASC_NODE": 259.3889, "ARG_OF_PERICENTER": 350.5799, "MEAN_ANOMALY": 38.1023, "EPHEMERIS_TYPE": 0, "CLASSIFICATION_TYPE": "U", "NORAD_CAT_ID": 31614, "ELEMENT_SET_NO": 999, "REV_AT_EPOCH": 96519, "BSTAR": 0.0057965045, "MEAN_MOTION_DOT": 0.00070035, "MEAN_MOTION_DDOT": 0}, "tle": {"line1": "1 31614U 99025BZU 25352.71607078  .00070035  00000+0  57965-2 0  9991", "line2": "2 31614  98.9754 259.3889 0019583 350.5799  38.1023 14.98414042965191"}}, "geometry": {"type": "Point", "coordinates": [82.86122834220386, 17.78872050389327]}}]}